[{"OBJECT_NAME":"STARLINK-4095","OBJECT_ID":"2022-083AQ","EPOCH":"2026-03-09T12:28:17.094720","MEAN_MOTION":15.08837297,"ECCENTRICITY":0.00010123,"INCLINATION":53.2172,"RA_OF_ASC_NODE":159.8384,"ARG_OF_PERICENTER":61.3287,"MEAN_ANOMALY":298.7807,"EPHEMERIS_TYPE":0,"CLASSIFICATION_TYPE":"U","NORAD_CAT_ID":53170,"ELEMENT_SET_NO":999,"REV_AT_EPOCH":20140,"BSTAR":-8.642716e-6,"MEAN_MOTION_DOT":-4.25e-6,"MEAN_MOTION_DDOT":0},{"OBJECT_NAME":"OBJECT C","OBJECT_ID":"2025-013C","EPOCH":"2026-03-09T23:45:12.010176","MEAN_MOTION":15.10546453,"ECCENTRICITY":0.00141064,"INCLINATION":97.6424,"RA_OF_ASC_NODE":238.1264,"ARG_OF_PERICENTER":358.7826,"MEAN_ANOMALY":1.3366,"EPHEMERIS_TYPE":0,"CLASSIFICATION_TYPE":"U","NORAD_CAT_ID":62731,"ELEMENT_SET_NO":999,"REV_AT_EPOCH":6235,"BSTAR":0.00030324361,"MEAN_MOTION_DOT":4.947e-5,"MEAN_MOTION_DDOT":0}]
